ONEWEB-0199             
1 48234U 21031AA  24178.27378729 -.00000080  00000+0 -24983-3 0  9993
2 48234  87.8961  73.1200 0002132  72.0516 288.0846 13.14501716153558
ONEWEB-0203             
1 48235U 21031AB  24178.26428233 -.00000082  00000+0 -25665-3 0  9999
2 48235  87.8963  73.1235 0002365  73.4445 286.6944 13.14505067153560
ONEWEB-0197             
1 48236U 21031AC  24178.16357744  .00000304  00000+0  78456-3 0  9998
2 48236  87.8964  73.1521 0001821  91.2544 268.8794 13.14504806153468
ONEWEB-0194             
1 48237U 21031AD  24178.21828411 -.00000022  00000+0 -93887-4 0  9994
2 48237  87.8956  73.1346 0002189  72.2168 287.9200 13.14504698153647
ONEWEB-0193             
1 48238U 21031AE  24178.23414277  .00000267  00000+0  68635-3 0  9999
2 48238  87.8964  73.1393 0001928  73.4115 286.7226 13.14505030153594
ONEWEB-0191             
1 48239U 21031AF  24178.24524306  .00000179  00000+0  44909-3 0  9996
2 48239  87.8961  73.1202 0001923  74.9565 285.1777 13.14504991153455
ONEWEB-0195             
1 48240U 21031AG  24178.22224553 -.00000083  00000+0 -25703-3 0  9994
2 48240  87.8956  73.1244 0001717  62.1130 298.0174 13.14502791153433
ONEWEB-0201             
1 48241U 21031AH  24178.21115120  .00000189  00000+0  47536-3 0  9996
2 48241  87.8963  73.1615 0001970  70.0006 290.1335 13.14503240153662
